NORAD_CAT_ID,OBJECT_NAME,OBJECT_TYPE,EPOCH,MEAN_MOTION,ECCENTRICITY,INCLINATION,RA_OF_ASC_NODE,ARG_OF_PERICENTER,MEAN_ANOMALY,BSTAR,MEAN_MOTION_DOT,MEAN_MOTION_DDOT,TLE_LINE0,TLE_LINE1,TLE_LINE2,SEMIMAJOR_AXIS,PERIOD,APOGEE,PERIGEE,DECAYED
55942.0,STARLINK-5917,PAYLOAD,2023-06-11 19:17:16,15.69933312,0.000359,69.9982,299.1694,271.2655,88.813,6.1755e-06,5.3e-06,0.0,0 STARLINK-5917,1 55942U 23037AE  23162.80366852  .00000530  00000-0  61755-5 0  9999,2 55942  69.9982 299.1694 0003590 271.2655  88.8130 15.69933312 13694,6737.225,91.724,361.508,356.671,0.0
55942.0,STARLINK-5917,PAYLOAD,2023-06-12 15:10:04,15.69923149,0.000376,69.9969,296.8407,270.4343,89.6422,5.9183e-06,4.99e-06,0.0,0 STARLINK-5917,1 55942U 23037AE  23163.63199260  .00000499  00000-0  59183-5 0  9994,2 55942  69.9969 296.8407 0003760 270.4343  89.6422 15.69923149 14162,6737.254,91.724,361.652,356.586,0.0
55942.0,STARLINK-5917,PAYLOAD,2023-06-13 07:59:20,15.69923891,0.0003057,69.9983,294.8703,266.6067,93.4779,5.9599e-07,-1.41e-06,0.0,0 STARLINK-5917,1 55942U 23037AE  23164.33287832 -.00000141  00000-0  59599-6 0  9992,2 55942  69.9983 294.8703 0003057 266.6067  93.4779 15.69923891 13930,6737.252,91.724,361.176,357.057,0.0
55942.0,STARLINK-5917,PAYLOAD,2023-06-14 02:20:22,15.69917595,0.0003172,69.9988,292.7199,264.0392,96.0442,2.3202e-05,2.577e-05,0.0,0 STARLINK-5917,1 55942U 23037AE  23165.09747909  .00002577  00000-0  23202-4 0  9996,2 55942  69.9988 292.7199 0003172 264.0392  96.0442 15.69917595 14393,6737.27,91.725,361.272,356.998,0.0
55942.0,STARLINK-5917,PAYLOAD,2023-06-14 08:27:22,15.69920643,0.0003576,69.9978,292.0041,269.6754,90.4032,-2.5226e-06,-5.16e-06,0.0,0 STARLINK-5917,1 55942U 23037AE  23165.35234822 -.00000516  00000-0 -25226-5 0  9992,2 55942  69.9978 292.0041 0003576 269.6754  90.4032 15.69920643 14090,6737.261,91.724,361.535,356.717,0.0
55942.0,STARLINK-5917,PAYLOAD,2023-06-15 10:27:09,15.69917986,0.0003516,69.9985,288.9585,266.683,93.3963,1.1994e-05,1.229e-05,0.0,0 STARLINK-5917,1 55942U 23037AE  23166.43553171  .00001229  00000-0  11994-4 0  9999,2 55942  69.9985 288.9585 0003516 266.6830  93.3963 15.69917986 14609,6737.269,91.725,361.502,356.765,0.0
55942.0,STARLINK-5917,PAYLOAD,2023-06-15 11:58:55,15.69919108,0.0003423,69.9984,288.7784,269.5973,90.483,1.3159e-05,1.369e-05,0.0,0 STARLINK-5917,1 55942U 23037AE  23166.49924837  .00001369  00000-0  13159-4 0  9996,2 55942  69.9984 288.7784 0003423 269.5973  90.4830 15.69919108 14276,6737.265,91.724,361.437,356.824,0.0
55942.0,STARLINK-5917,PAYLOAD,2023-06-15 18:05:54,15.69927225,0.0003587,69.9984,288.0627,269.0659,91.0126,2.2618e-05,2.508e-05,0.0,0 STARLINK-5917,1 55942U 23037AE  23166.75410822  .00002508  00000-0  22618-4 0  9995,2 55942  69.9984 288.0627 0003587 269.0659  91.0126 15.69927225 14658,6737.242,91.724,361.524,356.691,0.0
55942.0,STARLINK-5917,PAYLOAD,2023-06-16 13:58:41,15.69932858,0.0003601,69.9977,285.7335,267.6217,92.4566,1.4612e-06,-3.7e-07,0.0,0 STARLINK-5917,1 55942U 23037AE  23167.58242282 -.00000037  00000-0  14612-5 0  9992,2 55942  69.9977 285.7335 0003601 267.6217  92.4566 15.69932858 14449,6737.226,91.724,361.517,356.665,0.0
55942.0,STARLINK-5917,PAYLOAD,2023-06-16 17:02:12,15.69923383,0.0003635,69.9985,285.3756,266.5135,93.5645,5.144e-06,4.06e-06,0.0,0 STARLINK-5917,1 55942U 23037AE  23167.70986170  .00000406  00000-0  51440-5 0  9996,2 55942  69.9985 285.3756 0003635 266.5135  93.5645 15.69923383 14460,6737.253,91.724,361.567,356.669,0.0
55942.0,STARLINK-5917,PAYLOAD,2023-06-17 11:23:14,15.69912125,0.000347,69.9984,283.2261,267.0729,93.007,-1.1778e-05,-1.628e-05,0.0,0 STARLINK-5917,1 55942U 23037AE  23168.47447709 -.00001628  00000-0 -11778-4 0  9999,2 55942  69.9984 283.2261 0003470 267.0729  93.0070 15.69912125 14581,6737.285,91.725,361.488,356.813,0.0
55942.0,STARLINK-5917,PAYLOAD,2023-06-17 14:26:45,15.69904207,0.0003325,69.9987,282.8678,272.0031,88.0784,-5.6179e-08,-2.19e-06,0.0,0 STARLINK-5917,1 55942U 23037AE  23168.60191466 -.00000219  00000-0 -56179-7 0  9992,2 55942  69.9987 282.8678 0003325 272.0031  88.0784 15.69904207 14940,6737.308,91.725,361.413,356.933,0.0
55942.0,STARLINK-5917,PAYLOAD,2023-06-17 15:58:29,15.69922043,0.0003523,69.9986,282.6876,269.6257,90.4535,6.8689e-06,6.13e-06,0.0,0 STARLINK-5917,1 55942U 23037AE  23168.66561867  .00000613  00000-0  68689-5 0  9997,2 55942  69.9986 282.6876 0003523 269.6257  90.4535 15.69922043 14612,6737.257,91.724,361.496,356.748,0.0
55942.0,STARLINK-5917,PAYLOAD,2023-06-18 01:08:59,15.69936583,0.0003542,69.9984,281.6133,266.8053,93.2737,1.8243e-05,1.982e-05,0.0,0 STARLINK-5917,1 55942U 23037AE  23169.04790591  .00001982  00000-0  18243-4 0  9998,2 55942  69.9984 281.6133 0003542 266.8053  93.2737 15.69936583 15013,6737.215,91.723,361.467,356.694,0.0
55942.0,STARLINK-5917,PAYLOAD,2023-06-18 07:15:59,15.69934198,0.0003149,69.9986,280.8967,266.4954,93.5881,1.4655e-05,1.55e-05,0.0,0 STARLINK-5917,1 55942U 23037AE  23169.30277510  .00001550  00000-0  14655-4 0  9992,2 55942  69.9986 280.8967 0003149 266.4954  93.5881 15.69934198 14719,6737.222,91.724,361.209,356.966,0.0
55942.0,STARLINK-5917,PAYLOAD,2023-06-18 22:00:00,15.69965232,0.0003409,70.0006,279.1698,267.7724,320.8195,-0.00086184,-0.00102761,0.0,0 STARLINK-5917,1 55942U 23037AE  23169.91667824 -.00102761  00000-0 -86184-3 0  9993,2 55942  70.0006 279.1698 0003409 267.7724 320.8195 15.69965232 15140,6737.133,91.722,361.295,356.702,0.0
55942.0,STARLINK-5917,PAYLOAD,2023-06-19 10:47:32,15.69923791,0.0003443,69.9991,277.673,271.2032,88.877,2.4427e-05,2.725e-05,0.0,0 STARLINK-5917,1 55942U 23037AE  23170.44967930  .00002725  00000-0  24427-4 0  9994,2 55942  69.9991 277.6730 0003443 271.2032  88.8770 15.69923791 15234,6737.252,91.724,361.437,356.797,0.0
55942.0,STARLINK-5917,PAYLOAD,2023-06-19 13:51:02,15.69931549,0.0003719,69.998,277.3155,263.4541,96.6231,2.4445e-05,2.728e-05,0.0,0 STARLINK-5917,1 55942U 23037AE  23170.57710690  .00002728  00000-0  24445-4 0  9990,2 55942  69.9980 277.3155 0003719 263.4541  96.6231 15.69931549 14917,6737.23,91.724,361.6,356.589,0.0
55942.0,STARLINK-5917,PAYLOAD,2023-06-20 00:33:19,15.69920999,0.0003869,69.9978,276.06,266.099,93.9763,-1.5223e-05,-2.043e-05,0.0,0 STARLINK-5917,1 55942U 23037AE  23171.02313843 -.00002043  00000-0 -15223-4 0  9996,2 55942  69.9978 276.0600 0003869 266.0990  93.9763 15.69920999 15321,6737.26,91.724,361.732,356.518,0.0
55942.0,STARLINK-5917,PAYLOAD,2023-06-20 06:40:20,15.69908704,0.00032,69.998,275.3428,265.4631,94.6199,-1.8845e-05,-2.476e-05,0.0,0 STARLINK-5917,1 55942U 23037AE  23171.27801642 -.00002476  00000-0 -18845-4 0  9995,2 55942  69.9980 275.3428 0003200 265.4631  94.6199 15.69908704 15363,6737.295,91.725,361.316,357.004,0.0
55942.0,STARLINK-5917,PAYLOAD,2023-06-20 17:23:11,15.69412958,0.0002658,69.9995,274.0945,279.3223,80.7672,-0.00058016,-0.00067954,0.0,0 STARLINK-5917,1 55942U 23037AE  23171.72444390 -.00067954  00000-0 -58016-3 0  9993,2 55942  69.9995 274.0945 0002658 279.3223  80.7672 15.69412958 15437,6738.714,91.754,362.37,358.788,0.0
55942.0,STARLINK-5917,PAYLOAD,2023-06-21 10:13:49,15.68666054,0.0003068,69.9987,272.1244,250.0381,110.0484,-0.0011701,-0.00131716,0.0,0 STARLINK-5917,1 55942U 23037AE  23172.42626173 -.00131716  00000-0 -11701-2 0  9999,2 55942  69.9987 272.1244 0003068 250.0381 110.0484 15.68666054 15543,6740.853,91.798,364.786,360.65,0.0
55942.0,STARLINK-5917,PAYLOAD,2023-06-21 13:20:09,15.66331703,0.0009991,69.9974,271.7729,22.3243,337.8384,-0.0040959,-0.00406821,0.0,0 STARLINK-5917,1 55942U 23037AE  23172.55566477 -.00406821  00000-0 -40959-2 0  9992,2 55942  69.9974 271.7729 0009991  22.3243 337.8384 15.66331703 15221,6747.549,91.935,376.155,362.672,0.0
55942.0,STARLINK-5917,PAYLOAD,2023-06-21 22:00:01,15.6664341,0.0003354,69.9998,270.7482,271.3014,337.395,-0.0098663,-0.00943176,0.0,0 STARLINK-5917,1 55942U 23037AE  23172.91668981 -.00943176  00000-0 -98663-2 0  9999,2 55942  69.9998 270.7482 0003354 271.3014 337.3950 15.66643410 15619,6746.653,91.916,370.781,366.256,0.0
55942.0,STARLINK-5917,PAYLOAD,2023-06-22 14:00:01,15.65312499,0.0003513,69.9999,268.885,274.855,130.9835,-0.0097481,-0.00888319,0.0,0 STARLINK-5917,1 55942U 23037AE  23173.58334491 -.00888319  00000-0 -97481-2 0  9993,2 55942  69.9999 268.8850 0003513 274.8550 130.9835 15.65312499 15727,6750.477,91.994,374.714,369.971,0.0
55942.0,STARLINK-5917,PAYLOAD,2023-06-23 06:00:00,15.6404926,0.0003344,70.0,267.0257,266.3824,293.5085,-0.010907,-0.00939975,0.0,0 STARLINK-5917,1 55942U 23037AE  23174.25001157 -.00939975  00000-0 -10907-1 0  9990,2 55942  70.0000 267.0257 0003344 266.3824 293.5085 15.64049260 15823,6754.111,92.069,378.235,373.718,0.0
55942.0,STARLINK-5917,PAYLOAD,2023-06-24 14:00:01,15.61384009,0.000357,69.9995,263.3167,275.2,223.47,-0.01103,-0.00863251,0.0,0 STARLINK-5917,1 55942U 23037AE  23175.58334491 -.00863251  00000-0 -11030-1 0  9998,2 55942  69.9995 263.3167 0003570 275.2000 223.4700 15.61384009 16038,6761.795,92.226,386.074,381.246,0.0
55942.0,STARLINK-5917,PAYLOAD,2023-06-25 06:00:00,15.60142826,0.000354,69.9997,261.4681,267.2138,16.1163,-0.012963,-0.00957494,0.0,0 STARLINK-5917,1 55942U 23037AE  23176.25001157 -.00957494  00000-0 -12963-1 0  9992,2 55942  69.9997 261.4681 0003540 267.2138  16.1163 15.60142826 16140,6765.381,92.299,389.641,384.851,0.0
55942.0,STARLINK-5917,PAYLOAD,2023-06-25 22:00:01,15.5880366,0.0003443,69.9991,259.6226,272.0977,152.8691,-0.013072,-0.00920933,0.0,0 STARLINK-5917,1 55942U 23037AE  23176.91668981 -.00920933  00000-0 -13072-1 0  9999,2 55942  69.9991 259.6226 0003443 272.0977 152.8691 15.58803660 16247,6769.255,92.379,393.451,388.79,0.0
55942.0,STARLINK-5917,PAYLOAD,2023-06-27 06:00:00,15.56231332,0.0003426,69.9997,255.9427,266.0848,72.5232,-0.015123,-0.00962818,0.0,0 STARLINK-5917,1 55942U 23037AE  23178.25001157 -.00962818  00000-0 -15123-1 0  9991,2 55942  69.9997 255.9427 0003426 266.0848  72.5232 15.56231332 16457,6776.713,92.531,400.899,396.256,0.0
